H1 CPF 01  gfz 2022 01 06 01  5061 tandemx   
H2 1003001  6202 36605    2022 01 06 00 59 42 2022 01 11 00 00 42   120 1 1  0 0 0
H9
10 0 59586  49662.000000  0    2175413.963   5420327.693  -3660935.551
10 0 59586  49782.000000  0    2513355.570   5741913.632  -2866956.899
10 0 59586  49902.000000  0    2812188.917   5957834.791  -2022649.922
10 0 59586  50022.000000  0    3064783.077   6064977.831  -1142804.717
10 0 59586  50142.000000  0    3264776.018   6062255.169   -242866.012
10 0 59586  50262.000000  0    3406726.152   5950617.001    661343.802
10 0 59586  50382.000000  0    3486246.935   5733022.147   1553909.930
10 0 59586  50502.000000  0    3500121.503   5414369.376   2419113.233
10 0 59586  50622.000000  0    3446392.982   5001390.115   3241715.920
10 0 59586  50742.000000  0    3324429.276   4502502.970   4007237.660
10 0 59586  50862.000000  0    3134961.072   3927637.271   4702214.826
10 0 59586  50982.000000  0    2880088.374   3288028.376   5314441.632
10 0 59586  51102.000000  0    2563258.711   2595989.457   5833181.344
10 0 59586  51222.000000  0    2189221.035   1864669.264   6249349.608
10 0 59586  51342.000000  0    1763952.858   1107797.526   6555669.184
10 0 59586  51462.000000  0    1294561.631    339423.870   6746790.210
10 0 59586  51582.000000  0     789164.114   -426342.303   6819377.274
10 0 59586  51702.000000  0     256745.611  -1175590.292   6772165.487
10 0 59586  51822.000000  0    -293000.074  -1894861.020   6605981.038
10 0 59586  51942.000000  0    -849847.186  -2571388.696   6323727.012
10 0 59586  52062.000000  0   -1403227.081  -3193327.634   5930334.154
10 0 59586  52182.000000  0   -1942425.896  -3749960.342   5432679.755
10 0 59586  52302.000000  0   -2456791.684  -4231885.927   4839475.630
10 0 59586  52422.000000  0   -2935947.451  -4631185.397   4161122.618
10 0 59586  52542.000000  0   -3370003.758  -4941558.603   3409531.851
10 0 59586  52662.000000  0   -3749764.696  -5158429.619   2597916.323
10 0 59586  52782.000000  0   -4066923.335  -5279018.625   1740557.880
10 0 59586  52902.000000  0   -4314243.708  -5302378.565    852552.192
10 0 59586  53022.000000  0   -4485723.481  -5229394.391    -50463.361
10 0 59586  53142.000000  0   -4576733.403  -5062745.479   -952592.999
10 0 59586  53262.000000  0   -4584129.387  -4806831.449  -1837971.987
10 0 59586  53382.000000  0   -4506333.572  -4467662.412  -2691054.555
10 0 59586  53502.000000  0   -4343382.940  -4052717.517  -3496892.732
10 0 59586  53622.000000  0   -4096945.023  -3570776.992  -4241400.425
10 0 59586  53742.000000  0   -3770301.333  -3031732.264  -4911598.291
10 0 59586  53862.000000  0   -3368299.197  -2446378.339  -5495835.277
10 0 59586  53982.000000  0   -2897273.735  -1826194.222  -5983982.775
10 0 59586  54102.000000  0   -2364942.838  -1183116.203  -6367600.348
10 0 59586  54222.000000  0   -1780276.058   -529308.098  -6640070.771
10 0 59586  54342.000000  0   -1153341.110    123066.399  -6796702.046
10 0 59586  54462.000000  0    -495132.495    762064.618  -6834798.442
10 0 59586  54582.000000  0     182617.424   1376177.973  -6753702.207
10 0 59586  54702.000000  0     867641.438   1954533.386  -6554803.977
10 0 59586  54822.000000  0    1547354.646   2487082.142  -6241523.891
10 0 59586  54942.000000  0    2209081.169   2964772.708  -5819258.817
10 0 59586  55062.000000  0    2840287.034   3379704.835  -5295298.300
10 0 59586  55182.000000  0    3428815.119   3725261.823  -4678709.833
10 0 59586  55302.000000  0    3963120.197   3996221.082  -3980193.868
10 0 59586  55422.000000  0    4432499.007   4188838.709  -3211907.892
10 0 59586  55542.000000  0    4827310.030   4300905.850  -2387261.214
10 0 59586  55662.000000  0    5139176.554   4331774.779  -1520684.210
10 0 59586  55782.000000  0    5361169.714   4282354.204   -627375.365
10 0 59586  55902.000000  0    5487964.520   4155072.959    276969.313
10 0 59586  56022.000000  0    5515966.153   3953813.483   1176437.974
10 0 59586  56142.000000  0    5443403.298   3683814.747   2055191.293
10 0 59586  56262.000000  0    5270384.317   3351547.053   2897750.622
10 0 59586  56382.000000  0    4998914.059   2964563.226   3689279.279
10 0 59586  56502.000000  0    4632871.949   2531328.833   4415850.419
10 0 59586  56622.000000  0    4177952.406   2061035.815   5064693.682
10 0 59586  56742.000000  0    3641571.187   1563407.738   5624420.915
10 0 59586  56862.000000  0    3032735.251   1048496.732   6085224.203
10 0 59586  56982.000000  0    2361884.000    526478.380   6439040.864
10 0 59586  57102.000000  0    1640705.854      7451.487   6679687.061
10 0 59586  57222.000000  0     881932.245   -498755.998   6802961.696
10 0 59586  57342.000000  0      99110.413   -982773.021   6806715.814
10 0 59586  57462.000000  0    -693638.961  -1435858.248   6690886.645
10 0 59586  57582.000000  0   -1481875.978  -1850057.880   6457497.692
10 0 59586  57702.000000  0   -2251102.801  -2218344.864   6110624.055
10 0 59586  57822.000000  0   -2987028.140  -2534737.856   5656327.215
10 0 59586  57942.000000  0   -3675835.686  -2794401.190   5102557.742
10 0 59586  58062.000000  0   -4304448.757  -2993721.207   4459020.654
10 0 59586  58182.000000  0   -4860783.592  -3130357.052   3737009.181
10 0 59586  58302.000000  0   -5333987.689  -3203265.083   2949209.675
10 0 59586  58422.000000  0   -5714658.878  -3212697.323   2109480.405
10 0 59586  58542.000000  0   -5995040.002  -3160173.795   1232605.241
10 0 59586  58662.000000  0   -6169182.064  -3048427.442    334026.973
10 0 59586  58782.000000  0   -6233072.256  -2881323.253   -570431.937
10 0 59586  58902.000000  0   -6184724.271  -2663754.546  -1464857.353
10 0 59586  59022.000000  0   -6024225.808  -2401517.461  -2333533.253
10 0 59586  59142.000000  0   -5753743.682  -2101168.550  -3161224.202
10 0 59586  59262.000000  0   -5377488.430  -1769869.324  -3933446.432
10 0 59586  59382.000000  0   -4901638.671  -1415221.504  -4636721.605
10 0 59586  59502.000000  0   -4334228.815  -1045097.336  -5258809.026
10 0 59586  59622.000000  0   -3685002.036   -667468.507  -5788912.378
10 0 59586  59742.000000  0   -2965233.338   -290238.227  -6217857.055
10 0 59586  59862.000000  0   -2187527.619     78920.092  -6538237.265
10 0 59586  59982.000000  0   -1365596.045    432713.982  -6744532.462
10 0 59586  60102.000000  0    -514015.514    764370.662  -6833191.977
10 0 59586  60222.000000  0     352024.767   1067763.140  -6802688.900
10 0 59586  60342.000000  0    1216986.457   1337519.470  -6653544.031
10 0 59586  60462.000000  0    2065255.023   1569115.978  -6388320.513
10 0 59586  60582.000000  0    2881416.382   1758952.783  -6011584.385
10 0 59586  60702.000000  0    3650533.282   1904409.301  -5529833.235
10 0 59586  60822.000000  0    4358416.240   2003879.623  -4951394.831
10 0 59586  60942.000000  0    4991888.143   2056787.945  -4286295.259
10 0 59586  61062.000000  0    5539035.533   2063582.488  -3546094.920
10 0 59586  61182.000000  0    5989440.601   2025707.758  -2743696.182
10 0 59586  61302.000000  0    6334390.852   1945555.981  -1893124.624
10 0 59586  61422.000000  0    6567059.277   1826398.284  -1009284.522
10 0 59586  61542.000000  0    6682649.746   1672296.097   -107695.229
10 0 59586  61662.000000  0    6678503.069   1487994.883    795788.135
10 0 59586  61782.000000  0    6554159.772   1278803.774   1685259.929
10 0 59586  61902.000000  0    6311381.986   1050463.265   2545053.093
10 0 59586  62022.000000  0    5954127.523    809003.630   3360024.487
10 0 59586  62142.000000  0    5488480.669    560599.272   4115828.790
10 0 59586  62262.000000  0    4922539.104    311421.822   4799175.054
10 0 59586  62382.000000  0    4266264.536     67497.058   5398061.403
10 0 59586  62502.000000  0    3531296.678   -165433.416   5901985.395
10 0 59586  62622.000000  0    2730736.798   -382039.819   6302122.786
10 0 59586  62742.000000  0    1878908.052   -577519.672   6591476.032
10 0 59586  62862.000000  0     991095.181   -747699.699   6764991.547
10 0 59586  62982.000000  0      83266.737   -889122.090   6819642.958
10 0 59586  63102.000000  0    -828212.737   -999112.981   6754479.174
10 0 59586  63222.000000  0   -1726876.618  -1075832.894   6570639.032
10 0 59586  63342.000000  0   -2596452.022  -1118307.292   6271331.817
10 0 59586  63462.000000  0   -3421152.816  -1126437.159   5861785.567
10 0 59586  63582.000000  0   -4185968.741  -1100990.225   5349163.149
10 0 59586  63702.000000  0   -4876944.151  -1043573.462   4742443.292
10 0 59586  63822.000000  0   -5481440.116   -956585.802   4052268.095
10 0 59586  63942.000000  0   -5988373.821   -843152.350   3290759.233
10 0 59586  64062.000000  0   -6388430.225   -707041.435   2471307.105
10 0 59586  64182.000000  0   -6674244.103   -552566.307   1608335.489
10 0 59586  64302.000000  0   -6840545.369   -384473.666    717042.398
10 0 59586  64422.000000  0   -6884261.758   -207822.175   -186875.238
10 0 59586  64542.000000  0   -6804577.762    -27853.354  -1087506.752
10 0 59586  64662.000000  0   -6602947.201    150141.608  -1969016.879
10 0 59586  64782.000000  0   -6283061.049    320954.974  -2815930.396
10 0 59586  64902.000000  0   -5850772.346    479592.926  -3613410.537
10 0 59586  65022.000000  0   -5313975.963    621400.335  -4347522.058
10 0 59586  65142.000000  0   -4682451.330    742175.940  -5005472.904
10 0 59586  65262.000000  0   -3967671.299    838275.498  -5575831.373
10 0 59586  65382.000000  0   -3182583.455    906700.760  -6048715.753
10 0 59586  65502.000000  0   -2341368.231    945172.021  -6415954.132
10 0 59586  65622.000000  0   -1459180.379    952184.335  -6671214.114
10 0 59586  65742.000000  0    -551876.097    927046.498  -6810101.178
10 0 59586  65862.000000  0     364266.893    869901.349  -6830224.694
10 0 59586  65982.000000  0    1272832.954    781727.823  -6731235.724
10 0 59586  66102.000000  0    2157556.807    664324.453  -6514834.660
99
